{"type": "FeatureCollection", "features": [ {"type": "Feature", "properties": {"norad_id": 33492, "name": "GOSAT (IBUKI)", "group": "resource", "lat": 62.98031395317119, "lon": -63.6364235029496, "alt_km": 662.160287104808, "timestamp": "2025-12-17T15:50:09.433546+00:00", "meta": {"OBJECT_NAME": "GOSAT (IBUKI)", "OBJECT_ID": "2009-002A", "EPOCH": "2025-12-17T07:07:41.586240", "MEAN_MOTION": 14.67534784, "ECCENTRICITY": 9.644e-05, "INCLINATION": 98.0771, "RA_OF_ASC_NODE": 99.837, "ARG_OF_PERICENTER": 98.7121, "MEAN_ANOMALY": 261.4193, "EPHEMERIS_TYPE": 0, "CLASSIFICATION_TYPE": "U", "NORAD_CAT_ID": 33492, "ELEMENT_SET_NO": 999, "REV_AT_EPOCH": 90478, "BSTAR": 0.00014085631, "MEAN_MOTION_DOT": 7.51e-06, "MEAN_MOTION_DDOT": 0}, "tle": {"line1": "1 33492U 09002A   25351.29700910  .00000751  00000+0  14086-3 0  9990", "line2": "2 33492  98.0771  99.8370 0000964  98.7121 261.4193 14.67534784904781"}}, "geometry": {"type": "Point", "coordinates": [-63.6364235029496, 62.98031395317119]}}, {"type": "Feature", "properties": {"norad_id": 35681, "name": "DEIMOS-1", "group": "resource", "lat": -35.22406653721911, "lon": 157.52509057693024, "alt_km": 652.0941675421227, "timestamp": "2025-12-17T15:50:09.433558+00:00", "meta": {"OBJECT_NAME": "DEIMOS-1", "OBJECT_ID": "2009-041A", "EPOCH": "2025-12-17T07:51:22.449024", "MEAN_MOTION": 14.74959408, "ECCENTRICITY": 0.00026568, "INCLINATION": 97.7143, "RA_OF_ASC_NODE": 151.7163, "ARG_OF_PERICENTER": 71.7768, "MEAN_ANOMALY": 288.3731, "EPHEMERIS_TYPE": 0, "CLASSIFICATION_TYPE": "U", "NORAD_CAT_ID": 35681, "ELEMENT_SET_NO": 999, "REV_AT_EPOCH": 88007, "BSTAR": 6.8972831e-05, "MEAN_MOTION_DOT": 4.16e-06, "MEAN_MOTION_DDOT": 0}, "tle": {"line1": "1 35681U 09041A   25351.32734316  .00000416  00000+0  68973-4 0  9999", "line2": "2 35681  97.7143 151.7163 0002656  71.7768 288.3731 14.74959408880071"}}, "geometry": {"type": "Point", "coordinates": [157.52509057693024, -35.22406653721911]}}, {"type": "Feature", "properties": {"norad_id": 35682, "name": "DUBAISAT-1", "group": "resource", "lat": -71.60604921475615, "lon": -82.68182428454766, "alt_km": 648.9101218716942, "timestamp": "2025-12-17T15:50:09.433569+00:00", "meta": {"OBJECT_NAME": "DUBAISAT-1", "OBJECT_ID": "2009-041B", "EPOCH": "2025-12-17T08:10:32.218752", "MEAN_MOTION": 14.74616887, "ECCENTRICITY": 0.00093641, "INCLINATION": 97.9794, "RA_OF_ASC_NODE": 121.9527, "ARG_OF_PERICENTER": 298.1666, "MEAN_ANOMALY": 61.8596, "EPHEMERIS_TYPE": 0, "CLASSIFICATION_TYPE": "U", "NORAD_CAT_ID": 35682, "ELEMENT_SET_NO": 999, "REV_AT_EPOCH": 87829, "BSTAR": 0.00017592633, "MEAN_MOTION_DOT": 1.123e-05, "MEAN_MOTION_DDOT": 0}, "tle": {"line1": "1 35682U 09041B   25351.34065068  .00001123  00000+0  17593-3 0  9990", "line2": "2 35682  97.9794 121.9527 0009364 298.1666  61.8596 14.74616887878299"}}, "geometry": {"type": "Point", "coordinates": [-82.68182428454766, -71.60604921475615]}}, {"type": "Feature", "properties": {"norad_id": 35931, "name": "OCEANSAT-2", "group": "resource", "lat": -4.800498444023251, "lon": 171.06565606802837, "alt_km": 908.9990345118958, "timestamp": "2025-12-17T15:50:09.433580+00:00", "meta": {"OBJECT_NAME": "OCEANSAT-2", "OBJECT_ID": "2009-051A", "EPOCH": "2025-12-17T06:22:42.386304", "MEAN_MOTION": 13.99623718, "ECCENTRICITY": 0.00160948, "INCLINATION": 98.2219, "RA_OF_ASC_NODE": 351.4073, "ARG_OF_PERICENTER": 33.2094, "MEAN_ANOMALY": 327.008, "EPHEMERIS_TYPE": 0, "CLASSIFICATION_TYPE": "U", "NORAD_CAT_ID": 35931, "ELEMENT_SET_NO": 999, "REV_AT_EPOCH": 85388, "BSTAR": -6.8029983e-05, "MEAN_MOTION_DOT": -1.37e-06, "MEAN_MOTION_DDOT": 0}, "tle": {"line1": "1 35931U 09051A   25351.26576836 -.00000137  00000+0 -68030-4 0  9998", "line2": "2 35931  98.2219 351.4073 0016094  33.2094 327.0080 13.99623718853889"}}, "geometry": {"type": "Point", "coordinates": [171.06565606802837, -4.800498444023251]}}, {"type": "Feature", "properties": {"norad_id": 35946, "name": "WORLDVIEW-2 (WV-2)", "group": "resource", "lat": -76.89570415641853, "lon": -157.17295292028183, "alt_km": 776.6887037555862, "timestamp": "2025-12-17T15:50:09.433591+00:00", "meta": {"OBJECT_NAME": "WORLDVIEW-2 (WV-2)", "OBJECT_ID": "2009-055A", "EPOCH": "2025-12-17T07:56:58.154496", "MEAN_MOTION": 14.37725993, "ECCENTRICITY": 0.00050393, "INCLINATION": 98.4785, "RA_OF_ASC_NODE": 62.3527, "ARG_OF_PERICENTER": 59.4731, "MEAN_ANOMALY": 300.6953, "EPHEMERIS_TYPE": 0, "CLASSIFICATION_TYPE": "U", "NORAD_CAT_ID": 35946, "ELEMENT_SET_NO": 999, "REV_AT_EPOCH": 84951, "BSTAR": 6.246785e-05, "MEAN_MOTION_DOT": 1.44e-06, "MEAN_MOTION_DDOT": 0}, "tle": {"line1": "1 35946U 09055A   25351.33122864  .00000144  00000+0  62468-4 0  9999", "line2": "2 35946  98.4785  62.3527 0005039  59.4731 300.6953 14.37725993849514"}}, "geometry": {"type": "Point", "coordinates": [-157.17295292028183, -76.89570415641853]}}, {"type": "Feature", "properties": {"norad_id": 36036, "name": "SMOS", "group": "resource", "lat": -28.647587869421507, "lon": -178.713435006247, "alt_km": 765.4356552087575, "timestamp": "2025-12-17T15:50:09.433602+00:00", "meta": {"OBJECT_NAME": "SMOS", "OBJECT_ID": "2009-059A", "EPOCH": "2025-12-17T02:37:36.878304", "MEAN_MOTION": 14.39745091, "ECCENTRICITY": 0.00011, "INCLINATION": 98.438, "RA_OF_ASC_NODE": 176.0932, "ARG_OF_PERICENTER": 82.6152, "MEAN_ANOMALY": 277.5161, "EPHEMERIS_TYPE": 0, "CLASSIFICATION_TYPE": "U", "NORAD_CAT_ID": 36036, "ELEMENT_SET_NO": 999, "REV_AT_EPOCH": 84725, "BSTAR": 0.00012236766, "MEAN_MOTION_DOT": 3.4e-06, "MEAN_MOTION_DDOT": 0}, "tle": {"line1": "1 36036U 09059A   25351.10945461  .00000340  00000+0  12237-3 0  9991", "line2": "2 36036  98.4380 176.0932 0001100  82.6152 277.5161 14.39745091847254"}}, "geometry": {"type": "Point", "coordinates": [-178.713435006247, -28.647587869421507]}}, {"type": "Feature", "properties": {"norad_id": 36110, "name": "YAOGAN-7", "group": "resource", "lat": 70.47574516923531, "lon": 76.85848578299309, "alt_km": 644.6819424302266, "timestamp": "2025-12-17T15:50:09.433612+00:00", "meta": {"OBJECT_NAME": "YAOGAN-7", "OBJECT_ID": "2009-069A", "EPOCH": "2025-12-17T05:35:51.309600", "MEAN_MOTION": 14.77738955, "ECCENTRICITY": 0.00233272, "INCLINATION": 98.0297, "RA_OF_ASC_NODE": 232.9741, "ARG_OF_PERICENTER": 265.9708, "MEAN_ANOMALY": 93.8836, "EPHEMERIS_TYPE": 0, "CLASSIFICATION_TYPE": "U", "NORAD_CAT_ID": 36110, "ELEMENT_SET_NO": 999, "REV_AT_EPOCH": 86275, "BSTAR": 7.9423803e-05, "MEAN_MOTION_DOT": 5.18e-06, "MEAN_MOTION_DDOT": 0}, "tle": {"line1": "1 36110U 09069A   25351.23323275  .00000518  00000+0  79424-4 0  9991", "line2": "2 36110  98.0297 232.9741 0023327 265.9708  93.8836 14.77738955862751"}}, "geometry": {"type": "Point", "coordinates": [76.85848578299309, 70.47574516923531]}}, {"type": "Feature", "properties": {"norad_id": 36605, "name": "TANDEM-X", "group": "resource", "lat": 5.645030193624501, "lon": -3.772219810196282, "alt_km": 510.30737590021545, "timestamp": "2025-12-17T15:50:09.433623+00:00", "meta": {"OBJECT_NAME": "TANDEM-X", "OBJECT_ID": "2010-030A", "EPOCH": "2025-12-16T12:56:12.065856", "MEAN_MOTION": 15.19147751, "ECCENTRICITY": 0.00018632, "INCLINATION": 97.4444, "RA_OF_ASC_NODE": 355.8639, "ARG_OF_PERICENTER": 80.5991, "MEAN_ANOMALY": 279.5455, "EPHEMERIS_TYPE": 0, "CLASSIFICATION_TYPE": "U", "NORAD_CAT_ID": 36605, "ELEMENT_SET_NO": 999, "REV_AT_EPOCH": 85891, "BSTAR": 5.7396889e-05, "MEAN_MOTION_DOT": 1.138e-05, "MEAN_MOTION_DDOT": 0}, "tle": {"line1": "1 36605U 10030A   25350.53902854  .00001138  00000+0  57397-4 0  9992", "line2": "2 36605  97.4444 355.8639 0001863  80.5991 279.5455 15.19147751858912"}}, "geometry": {"type": "Point", "coordinates": [-3.772219810196282, 5.645030193624501]}}, {"type": "Feature", "properties": {"norad_id": 36795, "name": "CARTOSAT-2B", "group": "resource", "lat": 52.0092996572224, "lon": 30.441894299336624, "alt_km": 619.5481774780001, "timestamp": "2025-12-17T15:50:09.433633+00:00", "meta": {"OBJECT_NAME": "CARTOSAT-2B", "OBJECT_ID": "2010-035A", "EPOCH": "2025-12-17T07:28:44.211648", "MEAN_MOTION": 14.78732188, "ECCENTRICITY": 0.00129326, "INCLINATION": 97.7854, "RA_OF_ASC_NODE": 40.1938, "ARG_OF_PERICENTER": 62.8732, "MEAN_ANOMALY": 297.3797, "EPHEMERIS_TYPE": 0, "CLASSIFICATION_TYPE": "U", "NORAD_CAT_ID": 36795, "ELEMENT_SET_NO": 999, "REV_AT_EPOCH": 83297, "BSTAR": 0.0001198591, "MEAN_MOTION_DOT": 8.31e-06, "MEAN_MOTION_DDOT": 0}, "tle": {"line1": "1 36795U 10035A   25351.31162282  .00000831  00000+0  11986-3 0  9999", "line2": "2 36795  97.7854  40.1938 0012932  62.8732 297.3797 14.78732188832974"}}, "geometry": {"type": "Point", "coordinates": [30.441894299336624, 52.0092996572224]}}, {"type": "Feature", "properties": {"norad_id": 36834, "name": "YAOGAN-10", "group": "resource", "lat": -56.41166033068639, "lon": 179.353394557455, "alt_km": 622.7277005704054, "timestamp": "2025-12-17T15:50:09.433644+00:00", "meta": {"OBJECT_NAME": "YAOGAN-10", "OBJECT_ID": "2010-038A", "EPOCH": "2025-12-17T08:33:19.156608", "MEAN_MOTION": 14.84625166, "ECCENTRICITY": 0.00013715, "INCLINATION": 97.914, "RA_OF_ASC_NODE": 11.1431, "ARG_OF_PERICENTER": 80.3577, "MEAN_ANOMALY": 336.4555, "EPHEMERIS_TYPE": 0, "CLASSIFICATION_TYPE": "U", "NORAD_CAT_ID": 36834, "ELEMENT_SET_NO": 999, "REV_AT_EPOCH": 83022, "BSTAR": 0.00021676577, "MEAN_MOTION_DOT": 1.778e-05, "MEAN_MOTION_DDOT": 0}, "tle": {"line1": "1 36834U 10038A   25351.35647172  .00001778  00000+0  21677-3 0  9995", "line2": "2 36834  97.9140  11.1431 0001371  80.3577 336.4555 14.84625166830228"}}, "geometry": {"type": "Point", "coordinates": [179.353394557455, -56.41166033068639]}}]}